{"fetched_at":"2026-07-20T18:29:00.674Z","source":"https://celestrak.org/NORAD/elements/gp.php?GROUP=spire&FORMAT=JSON","constellation":"spire","records":[{"OBJECT_NAME":"LEMUR-1","OBJECT_ID":"2014-033AL","EPOCH":"2026-07-19T23:12:38.966688","CLASSIFICATION_TYPE":"U","MEAN_MOTION":14.85344509,"ECCENTRICITY":0.0047361,"INCLINATION":97.7916,"RA_OF_ASC_NODE":350.053,"ARG_OF_PERICENTER":332.0812,"MEAN_ANOMALY":27.7862,"EPHEMERIS_TYPE":0,"NORAD_CAT_ID":40044,"ELEMENT_SET_NO":999,"REV_AT_EPOCH":65033,"BSTAR":0.000087591555,"MEAN_MOTION_DOT":0.00000712,"MEAN_MOTION_DDOT":0},{"OBJECT_NAME":"LEMUR-2-GREENBERG","OBJECT_ID":"2017-042N","EPOCH":"2026-07-19T22:40:49.332288","CLASSIFICATION_TYPE":"U","MEAN_MOTION":15.32243019,"ECCENTRICITY":0.00074481,"INCLINATION":97.3842,"RA_OF_ASC_NODE":21.4445,"ARG_OF_PERICENTER":239.5677,"MEAN_ANOMALY":120.4829,"EPHEMERIS_TYPE":0,"NORAD_CAT_ID":42837,"ELEMENT_SET_NO":999,"REV_AT_EPOCH":49340,"BSTAR":0.00030659889,"MEAN_MOTION_DOT":0.00009476,"MEAN_MOTION_DDOT":0},{"OBJECT_NAME":"LEMUR-2-ANDIS","OBJECT_ID":"2017-042P","EPOCH":"2026-07-20T00:38:02.866848","CLASSIFICATION_TYPE":"U","MEAN_MOTION":15.36045973,"ECCENTRICITY":0.00074525,"INCLINATION":97.3691,"RA_OF_ASC_NODE":21.8287,"ARG_OF_PERICENTER":238.1835,"MEAN_ANOMALY":121.8684,"EPHEMERIS_TYPE":0,"NORAD_CAT_ID":42838,"ELEMENT_SET_NO":999,"REV_AT_EPOCH":49349,"BSTAR":0.00035312306,"MEAN_MOTION_DOT":0.00012331,"MEAN_MOTION_DDOT":0},{"OBJECT_NAME":"LEMUR-2-MONSON","OBJECT_ID":"2017-042Q","EPOCH":"2026-07-20T06:54:00.768096","CLASSIFICATION_TYPE":"U","MEAN_MOTION":15.288347,"ECCENTRICITY":0.0005637,"INCLINATION":97.4103,"RA_OF_ASC_NODE":21.7059,"ARG_OF_PERICENTER":223.979,"MEAN_ANOMALY":136.1002,"EPHEMERIS_TYPE":0,"NORAD_CAT_ID":42839,"ELEMENT_SET_NO":999,"REV_AT_EPOCH":49322,"BSTAR":0.00029034872,"MEAN_MOTION_DOT":0.00008064,"MEAN_MOTION_DDOT":0},{"OBJECT_NAME":"LEMUR-2-FURIAUS","OBJECT_ID":"2017-042R","EPOCH":"2026-07-20T06:54:30.112992","CLASSIFICATION_TYPE":"U","MEAN_MOTION":15.31229856,"ECCENTRICITY":0.00057228,"INCLINATION":97.3789,"RA_OF_ASC_NODE":19.6669,"ARG_OF_PERICENTER":307.633,"MEAN_ANOMALY":52.4391,"EPHEMERIS_TYPE":0,"NORAD_CAT_ID":42840,"ELEMENT_SET_NO":999,"REV_AT_EPOCH":49327,"BSTAR":0.00032045388,"MEAN_MOTION_DOT":0.00009596,"MEAN_MOTION_DDOT":0},{"OBJECT_NAME":"LEMUR-2-PETERG","OBJECT_ID":"2017-042S","EPOCH":"2026-07-19T10:38:36.824928","CLASSIFICATION_TYPE":"U","MEAN_MOTION":15.35124199,"ECCENTRICITY":0.00036319,"INCLINATION":97.4004,"RA_OF_ASC_NODE":25.5577,"ARG_OF_PERICENTER":202.2189,"MEAN_ANOMALY":157.8897,"EPHEMERIS_TYPE":0,"NORAD_CAT_ID":42841,"ELEMENT_SET_NO":999,"REV_AT_EPOCH":49338,"BSTAR":0.00031942597,"MEAN_MOTION_DOT":0.00010813,"MEAN_MOTION_DDOT":0},{"OBJECT_NAME":"LEMUR-2-DEMBITZ","OBJECT_ID":"2017-042T","EPOCH":"2026-07-20T05:48:56.819520","CLASSIFICATION_TYPE":"U","MEAN_MOTION":15.31202407,"ECCENTRICITY":0.00052034,"INCLINATION":97.3838,"RA_OF_ASC_NODE":22.6689,"ARG_OF_PERICENTER":250.951,"MEAN_ANOMALY":109.1168,"EPHEMERIS_TYPE":0,"NORAD_CAT_ID":42842,"ELEMENT_SET_NO":999,"REV_AT_EPOCH":49340,"BSTAR":0.00031424905,"MEAN_MOTION_DOT":0.000094,"MEAN_MOTION_DDOT":0},{"OBJECT_NAME":"LEMUR-2-ZACHARY","OBJECT_ID":"2017-042W","EPOCH":"2026-07-20T06:31:24.692448","CLASSIFICATION_TYPE":"U","MEAN_MOTION":15.53032139,"ECCENTRICITY":0.00029111,"INCLINATION":97.358,"RA_OF_ASC_NODE":33.6791,"ARG_OF_PERICENTER":222.3837,"MEAN_ANOMALY":137.7191,"EPHEMERIS_TYPE":0,"NORAD_CAT_ID":42845,"ELEMENT_SET_NO":999,"REV_AT_EPOCH":49433,"BSTAR":0.00052121432,"MEAN_MOTION_DOT":0.00032527,"MEAN_MOTION_DDOT":0},{"OBJECT_NAME":"LEMUR-2-AMANDA-SVANTE","OBJECT_ID":"2021-034B","EPOCH":"2026-07-20T03:23:13.690752","CLASSIFICATION_TYPE":"U","MEAN_MOTION":15.3614688,"ECCENTRICITY":0.00047941,"INCLINATION":97.5741,"RA_OF_ASC_NODE":280.3406,"ARG_OF_PERICENTER":132.6978,"MEAN_ANOMALY":227.467,"EPHEMERIS_TYPE":0,"NORAD_CAT_ID":48269,"ELEMENT_SET_NO":999,"REV_AT_EPOCH":28611,"BSTAR":0.00053964905,"MEAN_MOTION_DOT":0.00018952,"MEAN_MOTION_DDOT":0},{"OBJECT_NAME":"LEMUR-2-SPECIAL-K","OBJECT_ID":"2021-034F","EPOCH":"2026-07-20T05:22:04.371744","CLASSIFICATION_TYPE":"U","MEAN_MOTION":15.76546996,"ECCENTRICITY":0.00061991,"INCLINATION":97.5619,"RA_OF_ASC_NODE":290.7675,"ARG_OF_PERICENTER":211.4467,"MEAN_ANOMALY":148.6428,"EPHEMERIS_TYPE":0,"NORAD_CAT_ID":48273,"ELEMENT_SET_NO":999,"REV_AT_EPOCH":28687,"BSTAR":0.0012052863,"MEAN_MOTION_DOT":0.00195176,"MEAN_MOTION_DDOT":0},{"OBJECT_NAME":"LEMUR-2-EMBRIONOVIS","OBJECT_ID":"2023-084AQ","EPOCH":"2026-07-20T07:39:16.344288","CLASSIFICATION_TYPE":"U","MEAN_MOTION":15.38311947,"ECCENTRICITY":0.00087208,"INCLINATION":97.6331,"RA_OF_ASC_NODE":346.817,"ARG_OF_PERICENTER":187.6911,"MEAN_ANOMALY":172.4201,"EPHEMERIS_TYPE":0,"NORAD_CAT_ID":56970,"ELEMENT_SET_NO":999,"REV_AT_EPOCH":17277,"BSTAR":0.00021159645,"MEAN_MOTION_DOT":0.00007911,"MEAN_MOTION_DDOT":0},{"OBJECT_NAME":"LEMUR-2-DEVERILL-M-T","OBJECT_ID":"2023-100F","EPOCH":"2026-07-20T02:24:23.855040","CLASSIFICATION_TYPE":"U","MEAN_MOTION":15.41239918,"ECCENTRICITY":0.00047783,"INCLINATION":99.4446,"RA_OF_ASC_NODE":249.4061,"ARG_OF_PERICENTER":276.3881,"MEAN_ANOMALY":83.6815,"EPHEMERIS_TYPE":0,"NORAD_CAT_ID":57391,"ELEMENT_SET_NO":999,"REV_AT_EPOCH":16631,"BSTAR":0.00036633181,"MEAN_MOTION_DOT":0.00015122,"MEAN_MOTION_DDOT":0},{"OBJECT_NAME":"LEMUR-2-BASS","OBJECT_ID":"2023-174D","EPOCH":"2026-07-20T03:23:11.717376","CLASSIFICATION_TYPE":"U","MEAN_MOTION":15.4409486,"ECCENTRICITY":0.00073416,"INCLINATION":97.3836,"RA_OF_ASC_NODE":286.3374,"ARG_OF_PERICENTER":63.3978,"MEAN_ANOMALY":296.8021,"EPHEMERIS_TYPE":0,"NORAD_CAT_ID":58259,"ELEMENT_SET_NO":999,"REV_AT_EPOCH":15044,"BSTAR":0.00022142683,"MEAN_MOTION_DOT":0.00010045,"MEAN_MOTION_DDOT":0},{"OBJECT_NAME":"LEMUR-2-JK0903EM1407","OBJECT_ID":"2023-174CJ","EPOCH":"2026-07-19T19:43:55.386048","CLASSIFICATION_TYPE":"U","MEAN_MOTION":15.53221514,"ECCENTRICITY":0.00031139,"INCLINATION":97.3916,"RA_OF_ASC_NODE":292.2502,"ARG_OF_PERICENTER":14.6736,"MEAN_ANOMALY":345.4607,"EPHEMERIS_TYPE":0,"NORAD_CAT_ID":58336,"ELEMENT_SET_NO":999,"REV_AT_EPOCH":15079,"BSTAR":0.00025655286,"MEAN_MOTION_DOT":0.00016037,"MEAN_MOTION_DDOT":0},{"OBJECT_NAME":"LEMUR-2-MJR092620","OBJECT_ID":"2023-174CN","EPOCH":"2026-07-20T05:52:27.365952","CLASSIFICATION_TYPE":"U","MEAN_MOTION":15.45975607,"ECCENTRICITY":0.00048162,"INCLINATION":97.3966,"RA_OF_ASC_NODE":291.9096,"ARG_OF_PERICENTER":11.4703,"MEAN_ANOMALY":348.6656,"EPHEMERIS_TYPE":0,"NORAD_CAT_ID":58340,"ELEMENT_SET_NO":999,"REV_AT_EPOCH":15075,"BSTAR":0.00023323837,"MEAN_MOTION_DOT":0.00011283,"MEAN_MOTION_DDOT":0},{"OBJECT_NAME":"LEMUR-2-NIMBUS2000","OBJECT_ID":"2024-022A","EPOCH":"2026-07-20T03:18:49.742208","CLASSIFICATION_TYPE":"U","MEAN_MOTION":15.41242094,"ECCENTRICITY":0.00082222,"INCLINATION":97.4082,"RA_OF_ASC_NODE":51.5781,"ARG_OF_PERICENTER":11.6062,"MEAN_ANOMALY":348.5373,"EPHEMERIS_TYPE":0,"NORAD_CAT_ID":58899,"ELEMENT_SET_NO":999,"REV_AT_EPOCH":13734,"BSTAR":0.00030252617,"MEAN_MOTION_DOT":0.00012507,"MEAN_MOTION_DDOT":0}]}
